{
  "norad_id": 64895,
  "name": "2025-155V",
  "history": [
    {
      "epoch": "2026-03-28T20:26:13.869888Z",
      "apogee_km": 488.21692803541555,
      "perigee_km": 475.2416281677124,
      "latitude_deg": 1.734867876066512e-05,
      "longitude_deg": -76.59675477169229,
      "height_km": 485.79417955965715,
      "semi_major_axis_km": 6859.866278101564,
      "eccentricity": 0.00094574,
      "inclination_deg": 97.4504,
      "raan_deg": 56.2271,
      "arg_perigee_deg": 98.7294,
      "mean_anomaly_deg": 261.5017,
      "mean_motion_rev_day": 15.28020874
    },
    {
      "epoch": "2026-03-29T04:17:43.813248Z",
      "apogee_km": 488.18880795928635,
      "perigee_km": 475.2017734665078,
      "latitude_deg": -2.754402529938464e-06,
      "longitude_deg": 165.53315423965876,
      "height_km": 485.668654603035,
      "semi_major_axis_km": 6859.832290712897,
      "eccentricity": 0.0009466,
      "inclination_deg": 97.4505,
      "raan_deg": 56.5545,
      "arg_perigee_deg": 97.9059,
      "mean_anomaly_deg": 262.3255,
      "mean_motion_rev_day": 15.2803223
    },
    {
      "epoch": "2026-03-30T03:52:12.565920Z",
      "apogee_km": 488.11865359642707,
      "perigee_km": 475.1106437400913,
      "latitude_deg": -3.3034594359767494e-05,
      "longitude_deg": 171.92707936388672,
      "height_km": 485.2974718654594,
      "semi_major_axis_km": 6859.751648668259,
      "eccentricity": 0.00094814,
      "inclination_deg": 97.4507,
      "raan_deg": 57.5364,
      "arg_perigee_deg": 95.3181,
      "mean_anomaly_deg": 264.914,
      "mean_motion_rev_day": 15.28059175
    },
    {
      "epoch": "2026-03-30T11:43:41.770560Z",
      "apogee_km": 488.09102453150354,
      "perigee_km": 475.07059415758613,
      "latitude_deg": 3.245541327423214e-05,
      "longitude_deg": 54.06006401612897,
      "height_km": 485.1711187423781,
      "semi_major_axis_km": 6859.717809344545,
      "eccentricity": 0.00094905,
      "inclination_deg": 97.4507,
      "raan_deg": 57.8638,
      "arg_perigee_deg": 94.4965,
      "mean_anomaly_deg": 265.7359,
      "mean_motion_rev_day": 15.28070482
    },
    {
      "epoch": "2026-03-30T21:09:28.570752Z",
      "apogee_km": 488.05237825983113,
      "perigee_km": 475.0291428378732,
      "latitude_deg": -2.420356918723219e-05,
      "longitude_deg": -87.37939161238025,
      "height_km": 485.01366643688425,
      "semi_major_axis_km": 6859.677760548851,
      "eccentricity": 0.00094926,
      "inclination_deg": 97.4508,
      "raan_deg": 58.2566,
      "arg_perigee_deg": 93.4603,
      "mean_anomaly_deg": 266.7722,
      "mean_motion_rev_day": 15.28083864
    },
    {
      "epoch": "2026-03-31T19:09:36.888768Z",
      "apogee_km": 487.9555893983779,
      "perigee_km": 474.9799610056052,
      "latitude_deg": 4.4459912568871475e-06,
      "longitude_deg": -57.40095526740142,
      "height_km": 484.6779596307713,
      "semi_major_axis_km": 6859.604775201991,
      "eccentricity": 0.0009458,
      "inclination_deg": 97.4512,
      "raan_deg": 59.1733,
      "arg_perigee_deg": 91.1507,
      "mean_anomaly_deg": 269.0816,
      "mean_motion_rev_day": 15.28108252
    },
    {
      "epoch": "2026-04-01T20:18:19.023264Z",
      "apogee_km": 487.8819530609617,
      "perigee_km": 474.8804222880426,
      "latitude_deg": 2.284167972553784e-05,
      "longitude_deg": -74.56138672392089,
      "height_km": 484.26905423420436,
      "semi_major_axis_km": 6859.518187674502,
      "eccentricity": 0.0009477,
      "inclination_deg": 97.4516,
      "raan_deg": 60.2211,
      "arg_perigee_deg": 88.3081,
      "mean_anomaly_deg": 271.9244,
      "mean_motion_rev_day": 15.28137186
    },
    {
      "epoch": "2026-04-02T21:26:59.178336Z",
      "apogee_km": 487.7532816168805,
      "perigee_km": 474.7648779518868,
      "latitude_deg": 5.501722260932445e-06,
      "longitude_deg": -91.71344386363907,
      "height_km": 483.84599690571264,
      "semi_major_axis_km": 6859.396079784384,
      "eccentricity": 0.00094676,
      "inclination_deg": 97.4522,
      "raan_deg": 61.269,
      "arg_perigee_deg": 85.6467,
      "mean_anomaly_deg": 274.5854,
      "mean_motion_rev_day": 15.28177991
    },
    {
      "epoch": "2026-04-03T21:01:19.756704Z",
      "apogee_km": 487.6205114894183,
      "perigee_km": 474.69211545218786,
      "latitude_deg": -1.0944377333265408e-05,
      "longitude_deg": -85.2845682814372,
      "height_km": 483.4569214866119,
      "semi_major_axis_km": 6859.293313470803,
      "eccentricity": 0.0009424,
      "inclination_deg": 97.4524,
      "raan_deg": 62.2517,
      "arg_perigee_deg": 83.0742,
      "mean_anomaly_deg": 277.1569,
      "mean_motion_rev_day": 15.28212334
    },
    {
      "epoch": "2026-04-04T20:35:38.409216Z",
      "apogee_km": 487.5156798883927,
      "perigee_km": 474.6217449901487,
      "latitude_deg": 1.9295721784854098e-05,
      "longitude_deg": -78.8480532357193,
      "height_km": 483.06894599412806,
      "semi_major_axis_km": 6859.20571243927,
      "eccentricity": 0.0009399,
      "inclination_deg": 97.4527,
      "raan_deg": 63.234,
      "arg_perigee_deg": 80.3558,
      "mean_anomaly_deg": 279.8743,
      "mean_motion_rev_day": 15.2824161
    },
    {
      "epoch": "2026-04-05T13:52:47.033760Z",
      "apogee_km": 487.4356746834028,
      "perigee_km": 474.57533122176756,
      "latitude_deg": 2.0595933914933328e-05,
      "longitude_deg": 21.876710157868494,
      "height_km": 482.80957103888557,
      "semi_major_axis_km": 6859.142502952584,
      "eccentricity": 0.00093746,
      "inclination_deg": 97.4529,
      "raan_deg": 63.9546,
      "arg_perigee_deg": 78.5505,
      "mean_anomaly_deg": 281.6787,
      "mean_motion_rev_day": 15.28262735
    },
    {
      "epoch": "2026-04-05T15:27:04.142016Z",
      "apogee_km": 487.4299172552146,
      "perigee_km": 474.5690363611993,
      "latitude_deg": -2.1989085587666026e-05,
      "longitude_deg": -1.6936047028734234,
      "height_km": 482.785534536701,
      "semi_major_axis_km": 6859.136476808207,
      "eccentricity": 0.0009375,
      "inclination_deg": 97.4529,
      "raan_deg": 64.0201,
      "arg_perigee_deg": 78.387,
      "mean_anomaly_deg": 281.8421,
      "mean_motion_rev_day": 15.28264749
    },
    {
      "epoch": "2026-04-06T04:01:20.807616Z",
      "apogee_km": 487.38407939773424,
      "perigee_km": 474.5426089154116,
      "latitude_deg": -9.37446096853923e-06,
      "longitude_deg": 169.74466782086074,
      "height_km": 482.60065102313627,
      "semi_major_axis_km": 6859.100344156573,
      "eccentricity": 0.00093609,
      "inclination_deg": 97.453,
      "raan_deg": 64.5441,
      "arg_perigee_deg": 77.0092,
      "mean_anomaly_deg": 283.2192,
      "mean_motion_rev_day": 15.28276825
    },
    {
      "epoch": "2026-04-07T13:01:17.768064Z",
      "apogee_km": 487.24036500817783,
      "perigee_km": 474.4986629674031,
      "latitude_deg": 2.9160261220504827e-05,
      "longitude_deg": 34.77779678355393,
      "height_km": 482.12978981328285,
      "semi_major_axis_km": 6859.00651398779,
      "eccentricity": 0.00092883,
      "inclination_deg": 97.4529,
      "raan_deg": 65.9198,
      "arg_perigee_deg": 73.392,
      "mean_anomaly_deg": 286.8339,
      "mean_motion_rev_day": 15.28308185
    },
    {
      "epoch": "2026-04-07T20:52:42.414240Z",
      "apogee_km": 487.21193880824103,
      "perigee_km": 474.4830353970756,
      "latitude_deg": 7.376197908272376e-06,
      "longitude_deg": -83.06996294860296,
      "height_km": 481.9985599958915,
      "semi_major_axis_km": 6858.984487102658,
      "eccentricity": 0.0009279,
      "inclination_deg": 97.4529,
      "raan_deg": 66.2474,
      "arg_perigee_deg": 72.3446,
      "mean_anomaly_deg": 287.8806,
      "mean_motion_rev_day": 15.28315547
    },
    {
      "epoch": "2026-04-08T14:09:48.199680Z",
      "apogee_km": 487.1370000806073,
      "perigee_km": 474.4740204181844,
      "latitude_deg": 3.0165289496984288e-06,
      "longitude_deg": 17.666662136668258,
      "height_km": 481.7601875281331,
      "semi_major_axis_km": 6858.942510249395,
      "eccentricity": 0.0009231,
      "inclination_deg": 97.4529,
      "raan_deg": 66.968,
      "arg_perigee_deg": 70.3698,
      "mean_anomaly_deg": 289.8537,
      "mean_motion_rev_day": 15.28329577
    }
  ]
}